SL-16 R/B               
1 22566U 93016B   26043.83083428 -.00000242  00000+0 -99497-4 0  9992
2 22566  71.0056 267.3955 0010504 347.8641  12.2227 14.15302424698658
COSMOS 2242             
1 22626U 93024A   26043.69546440  .00002336  00000+0  20309-3 0  9999
2 22626  82.5191 290.6235 0017360  33.8507 326.3820 14.96445665776651
SL-16 R/B               
1 22803U 93059B   26043.49111574 -.00000070  00000+0 -10692-4 0  9998
2 22803  70.9890  64.2664 0019475 251.3396 108.5614 14.17228262675966
ARIANE 40 R/B           
1 22830U 93061H   26043.76897894  .00000197  00000+0  87824-4 0  9996
2 22830  98.4971 113.1417 0010543   4.4690 355.6587 14.32847560690531
COSMOS 2278             
1 23087U 94023A   26043.84430480  .00000017  00000+0  33559-4 0  9990
2 23087  71.0501 227.0773 0006819  61.2209 298.9597 14.14363497641291
SL-16 R/B               
1 23088U 94023B   26043.61928365  .00000213  00000+0  13445-3 0  9999
2 23088  70.9995 123.5406 0004572 309.3099  50.7618 14.15004798642541
SL-16 R/B               
1 23343U 94074B   26043.97087448  .00000518  00000+0  76053-4 0  9999
2 23343  97.7142  75.7860 0005405 310.5799 111.2319 14.79377994683597
SL-16 R/B               
1 23405U 94077B   26043.96400272  .00000310  00000+0  18299-3 0  9991
2 23405  70.9821  44.5059 0004138 232.1416 127.9333 14.15559583612738
ARIANE 40+ R/B          
1 23561U 95021B   26043.80781292  .00000300  00000+0  10970-3 0  9998
2 23561  98.4551 115.6211 0006300 207.6446 263.1362 14.39753843615660
SL-16 R/B               
1 23705U 95058B   26043.82843115  .00000185  00000+0  11871-3 0  9995
2 23705  71.0194 232.4496 0011935 167.5080 192.6341 14.15495076564336
SL-16 R/B               
1 24298U 96051B   26043.95357749  .00000110  00000+0  86202-4 0  9993
2 24298  70.7567 227.5953 0017176 182.9891 177.1129 14.12408579518151
ORBVIEW 2 (SEASTAR)     
1 24883U 97037A   26043.95228999  .00000346  00000+0  13651-3 0  9990
2 24883  98.8522 207.6145 0003082 122.0033 238.1452 14.35475641504925
