CCSDS_OMM_VERS = 2.0
CREATION_DATE  = 
ORIGINATOR     = 

OBJECT_NAME    = SL-16 R/B
OBJECT_ID      = 1993-016B
CENTER_NAME    = EARTH
REF_FRAME      = TEME
TIME_SYSTEM    = UTC
MEAN_ELEMENT_THEORY = SGP/SGP4

EPOCH          = 2026-02-12T19:56:24.081792
MEAN_MOTION    = 14.15302424
ECCENTRICITY   = .00105048
INCLINATION    = 71.0056
RA_OF_ASC_NODE = 267.3955
ARG_OF_PERICENTER = 347.8641
MEAN_ANOMALY   = 12.2227

EPHEMERIS_TYPE = 0
CLASSIFICATION_TYPE = U
NORAD_CAT_ID   = 22566
ELEMENT_SET_NO = 999
REV_AT_EPOCH   = 69865
BSTAR          = -.99497222E-4
MEAN_MOTION_DOT = -.242E-5
MEAN_MOTION_DDOT = 0

CCSDS_OMM_VERS = 2.0
CREATION_DATE  = 
ORIGINATOR     = 

OBJECT_NAME    = COSMOS 2242
OBJECT_ID      = 1993-024A
CENTER_NAME    = EARTH
REF_FRAME      = TEME
TIME_SYSTEM    = UTC
MEAN_ELEMENT_THEORY = SGP/SGP4

EPOCH          = 2026-02-12T16:41:28.124160
MEAN_MOTION    = 14.96445665
ECCENTRICITY   = .00173601
INCLINATION    = 82.5191
RA_OF_ASC_NODE = 290.6235
ARG_OF_PERICENTER = 33.8507
MEAN_ANOMALY   = 326.3820

EPHEMERIS_TYPE = 0
CLASSIFICATION_TYPE = U
NORAD_CAT_ID   = 22626
ELEMENT_SET_NO = 999
REV_AT_EPOCH   = 77665
BSTAR          = .20309095E-3
MEAN_MOTION_DOT = .2336E-4
MEAN_MOTION_DDOT = 0

CCSDS_OMM_VERS = 2.0
CREATION_DATE  = 
ORIGINATOR     = 

OBJECT_NAME    = SL-16 R/B
OBJECT_ID      = 1993-059B
CENTER_NAME    = EARTH
REF_FRAME      = TEME
TIME_SYSTEM    = UTC
MEAN_ELEMENT_THEORY = SGP/SGP4

EPOCH          = 2026-02-12T11:47:12.399936
MEAN_MOTION    = 14.17228262
ECCENTRICITY   = .00194751
INCLINATION    = 70.9890
RA_OF_ASC_NODE = 64.2664
ARG_OF_PERICENTER = 251.3396
MEAN_ANOMALY   = 108.5614

EPHEMERIS_TYPE = 0
CLASSIFICATION_TYPE = U
NORAD_CAT_ID   = 22803
ELEMENT_SET_NO = 999
REV_AT_EPOCH   = 67596
BSTAR          = -.10692464E-4
MEAN_MOTION_DOT = -.7E-6
MEAN_MOTION_DDOT = 0

CCSDS_OMM_VERS = 2.0
CREATION_DATE  = 
ORIGINATOR     = 

OBJECT_NAME    = ARIANE 40 R/B
OBJECT_ID      = 1993-061H
CENTER_NAME    = EARTH
REF_FRAME      = TEME
TIME_SYSTEM    = UTC
MEAN_ELEMENT_THEORY = SGP/SGP4

EPOCH          = 2026-02-12T18:27:19.780416
MEAN_MOTION    = 14.32847560
ECCENTRICITY   = .0010543
INCLINATION    = 98.4971
RA_OF_ASC_NODE = 113.1417
ARG_OF_PERICENTER = 4.4690
MEAN_ANOMALY   = 355.6587

EPHEMERIS_TYPE = 0
CLASSIFICATION_TYPE = U
NORAD_CAT_ID   = 22830
ELEMENT_SET_NO = 999
REV_AT_EPOCH   = 69053
BSTAR          = .87823502E-4
MEAN_MOTION_DOT = .197E-5
MEAN_MOTION_DDOT = 0

CCSDS_OMM_VERS = 2.0
CREATION_DATE  = 
ORIGINATOR     = 

OBJECT_NAME    = COSMOS 2278
OBJECT_ID      = 1994-023A
CENTER_NAME    = EARTH
REF_FRAME      = TEME
TIME_SYSTEM    = UTC
MEAN_ELEMENT_THEORY = SGP/SGP4

EPOCH          = 2026-02-12T20:15:47.934720
MEAN_MOTION    = 14.14363497
ECCENTRICITY   = .00068197
INCLINATION    = 71.0501
RA_OF_ASC_NODE = 227.0773
ARG_OF_PERICENTER = 61.2209
MEAN_ANOMALY   = 298.9597

EPHEMERIS_TYPE = 0
CLASSIFICATION_TYPE = U
NORAD_CAT_ID   = 23087
ELEMENT_SET_NO = 999
REV_AT_EPOCH   = 64129
BSTAR          = .33559234E-4
MEAN_MOTION_DOT = .17E-6
MEAN_MOTION_DDOT = 0

CCSDS_OMM_VERS = 2.0
CREATION_DATE  = 
ORIGINATOR     = 

OBJECT_NAME    = SL-16 R/B
OBJECT_ID      = 1994-023B
CENTER_NAME    = EARTH
REF_FRAME      = TEME
TIME_SYSTEM    = UTC
MEAN_ELEMENT_THEORY = SGP/SGP4

EPOCH          = 2026-02-12T14:51:46.107360
MEAN_MOTION    = 14.15004798
ECCENTRICITY   = .0004572
INCLINATION    = 70.9995
RA_OF_ASC_NODE = 123.5406
ARG_OF_PERICENTER = 309.3099
MEAN_ANOMALY   = 50.7618

EPHEMERIS_TYPE = 0
CLASSIFICATION_TYPE = U
NORAD_CAT_ID   = 23088
ELEMENT_SET_NO = 999
REV_AT_EPOCH   = 64254
BSTAR          = .13445E-3
MEAN_MOTION_DOT = .213E-5
MEAN_MOTION_DDOT = 0

CCSDS_OMM_VERS = 2.0
CREATION_DATE  = 
ORIGINATOR     = 

OBJECT_NAME    = SL-16 R/B
OBJECT_ID      = 1994-074B
CENTER_NAME    = EARTH
REF_FRAME      = TEME
TIME_SYSTEM    = UTC
MEAN_ELEMENT_THEORY = SGP/SGP4

EPOCH          = 2026-02-12T23:18:03.555072
MEAN_MOTION    = 14.79377994
ECCENTRICITY   = .0005405
INCLINATION    = 97.7142
RA_OF_ASC_NODE = 75.7860
ARG_OF_PERICENTER = 310.5799
MEAN_ANOMALY   = 111.2319

EPHEMERIS_TYPE = 0
CLASSIFICATION_TYPE = U
NORAD_CAT_ID   = 23343
ELEMENT_SET_NO = 999
REV_AT_EPOCH   = 68359
BSTAR          = .76053246E-4
MEAN_MOTION_DOT = .518E-5
MEAN_MOTION_DDOT = 0

CCSDS_OMM_VERS = 2.0
CREATION_DATE  = 
ORIGINATOR     = 

OBJECT_NAME    = SL-16 R/B
OBJECT_ID      = 1994-077B
CENTER_NAME    = EARTH
REF_FRAME      = TEME
TIME_SYSTEM    = UTC
MEAN_ELEMENT_THEORY = SGP/SGP4

EPOCH          = 2026-02-12T23:08:09.835008
MEAN_MOTION    = 14.15559583
ECCENTRICITY   = .00041389
INCLINATION    = 70.9821
RA_OF_ASC_NODE = 44.5059
ARG_OF_PERICENTER = 232.1416
MEAN_ANOMALY   = 127.9333

EPHEMERIS_TYPE = 0
CLASSIFICATION_TYPE = U
NORAD_CAT_ID   = 23405
ELEMENT_SET_NO = 999
REV_AT_EPOCH   = 61273
BSTAR          = .1829879E-3
MEAN_MOTION_DOT = .31E-5
MEAN_MOTION_DDOT = 0

CCSDS_OMM_VERS = 2.0
CREATION_DATE  = 
ORIGINATOR     = 

OBJECT_NAME    = ARIANE 40+ R/B
OBJECT_ID      = 1995-021B
CENTER_NAME    = EARTH
REF_FRAME      = TEME
TIME_SYSTEM    = UTC
MEAN_ELEMENT_THEORY = SGP/SGP4

EPOCH          = 2026-02-12T19:23:15.036288
MEAN_MOTION    = 14.39753843
ECCENTRICITY   = .00063001
INCLINATION    = 98.4551
RA_OF_ASC_NODE = 115.6211
ARG_OF_PERICENTER = 207.6446
MEAN_ANOMALY   = 263.1362

EPHEMERIS_TYPE = 0
CLASSIFICATION_TYPE = U
NORAD_CAT_ID   = 23561
ELEMENT_SET_NO = 999
REV_AT_EPOCH   = 61566
BSTAR          = .10969996E-3
MEAN_MOTION_DOT = .3E-5
MEAN_MOTION_DDOT = 0

CCSDS_OMM_VERS = 2.0
CREATION_DATE  = 
ORIGINATOR     = 

OBJECT_NAME    = SL-16 R/B
OBJECT_ID      = 1995-058B
CENTER_NAME    = EARTH
REF_FRAME      = TEME
TIME_SYSTEM    = UTC
MEAN_ELEMENT_THEORY = SGP/SGP4

EPOCH          = 2026-02-12T19:52:56.451360
MEAN_MOTION    = 14.15495076
ECCENTRICITY   = .00119352
INCLINATION    = 71.0194
RA_OF_ASC_NODE = 232.4496
ARG_OF_PERICENTER = 167.5080
MEAN_ANOMALY   = 192.6341

EPHEMERIS_TYPE = 0
CLASSIFICATION_TYPE = U
NORAD_CAT_ID   = 23705
ELEMENT_SET_NO = 999
REV_AT_EPOCH   = 56433
BSTAR          = .1187078E-3
MEAN_MOTION_DOT = .185E-5
MEAN_MOTION_DDOT = 0

CCSDS_OMM_VERS = 2.0
CREATION_DATE  = 
ORIGINATOR     = 

OBJECT_NAME    = SL-16 R/B
OBJECT_ID      = 1996-051B
CENTER_NAME    = EARTH
REF_FRAME      = TEME
TIME_SYSTEM    = UTC
MEAN_ELEMENT_THEORY = SGP/SGP4

EPOCH          = 2026-02-12T22:53:09.095136
MEAN_MOTION    = 14.12408579
ECCENTRICITY   = .00171765
INCLINATION    = 70.7567
RA_OF_ASC_NODE = 227.5953
ARG_OF_PERICENTER = 182.9891
MEAN_ANOMALY   = 177.1129

EPHEMERIS_TYPE = 0
CLASSIFICATION_TYPE = U
NORAD_CAT_ID   = 24298
ELEMENT_SET_NO = 999
REV_AT_EPOCH   = 51815
BSTAR          = .86202136E-4
MEAN_MOTION_DOT = .11E-5
MEAN_MOTION_DDOT = 0

CCSDS_OMM_VERS = 2.0
CREATION_DATE  = 
ORIGINATOR     = 

OBJECT_NAME    = ORBVIEW 2 (SEASTAR)
OBJECT_ID      = 1997-037A
CENTER_NAME    = EARTH
REF_FRAME      = TEME
TIME_SYSTEM    = UTC
MEAN_ELEMENT_THEORY = SGP/SGP4

EPOCH          = 2026-02-12T22:51:17.855136
MEAN_MOTION    = 14.35475641
ECCENTRICITY   = .00030829
INCLINATION    = 98.8522
RA_OF_ASC_NODE = 207.6145
ARG_OF_PERICENTER = 122.0033
MEAN_ANOMALY   = 238.1452

EPHEMERIS_TYPE = 0
CLASSIFICATION_TYPE = U
NORAD_CAT_ID   = 24883
ELEMENT_SET_NO = 999
REV_AT_EPOCH   = 50492
BSTAR          = .1365139E-3
MEAN_MOTION_DOT = .346E-5
MEAN_MOTION_DDOT = 0

